[{"OBJECT_NAME":"COSMOS 2517 (GEO-IK 2)","OBJECT_ID":"2016-034A","EPOCH":"2026-03-09T22:46:47.568288","MEAN_MOTION":13.85906021,"ECCENTRICITY":9.478e-5,"INCLINATION":99.193,"RA_OF_ASC_NODE":79.5998,"ARG_OF_PERICENTER":99.0909,"MEAN_ANOMALY":261.0354,"EPHEMERIS_TYPE":0,"CLASSIFICATION_TYPE":"U","NORAD_CAT_ID":41579,"ELEMENT_SET_NO":999,"REV_AT_EPOCH":49388,"BSTAR":5.6006133e-5,"MEAN_MOTION_DOT":2.1e-7,"MEAN_MOTION_DDOT":0},{"OBJECT_NAME":"COSMOS 1275 DEB","OBJECT_ID":"1981-053AC","EPOCH":"2026-03-09T23:17:57.405120","MEAN_MOTION":13.84000112,"ECCENTRICITY":0.00262105,"INCLINATION":82.9391,"RA_OF_ASC_NODE":244.8304,"ARG_OF_PERICENTER":178.5544,"MEAN_ANOMALY":346.2998,"EPHEMERIS_TYPE":0,"CLASSIFICATION_TYPE":"U","NORAD_CAT_ID":12672,"ELEMENT_SET_NO":999,"REV_AT_EPOCH":24468,"BSTAR":0.00053790442,"MEAN_MOTION_DOT":6.15e-6,"MEAN_MOTION_DDOT":0}]
